KUIPER-00186            
1 67140U 25301H   26023.58335648 -.00382151  00000+0 -13451-1 0  9990
2 67140  51.8712 283.4564 0007807 227.2327 243.5617 15.30387890  5640
KUIPER-00187            
1 67141U 25301J   26023.58335648 -.00986414  00000+0 -49662-1 0  9996
2 67141  51.8797 283.8742 0007688 235.7608 349.9697 15.19520186  5293
KUIPER-00188            
1 67142U 25301K   26023.42715883  .00048643  00000+0  13620-2 0  9990
2 67142  51.8708 284.1333 0007743 228.3070 131.7254 15.36125582  6779
KUIPER-00191            
1 67143U 25301L   26023.16163673  .00031627  00000+0  88150-3 0  9991
2 67143  51.8665 285.3499 0007061 222.5801 137.4638 15.36476021  6764
KUIPER-00196            
1 67144U 25301M   26023.14290303  .00047437  00000+0  12933-2 0  9992
2 67144  51.8719 285.2401 0003636 183.9986 176.0972 15.36987797  6739
KUIPER-00204            
1 67145U 25301N   26023.45509679  .00037901  00000+0  15183-2 0  9991
2 67145  51.8853 284.9982 0004213 157.3671 202.7497 15.24671695  6875
KUIPER-00210            
1 67146U 25301P   26023.12172969  .00059061  00000+0  16878-2 0  9997
2 67146  51.8615 285.8031 0011436 245.5205 114.4588 15.35367700  6898
KUIPER-00221            
1 67147U 25301Q   26023.58335648 -.01249788  00000+0 -58987-1 0  9999
2 67147  51.8791 283.7804 0005073 203.6913 121.3399 15.21958079  5885
